GLOBALSTAR M024         
1 25883U 99043A   25161.11062501 -.00000059  00000+0  22254-3 0  9994
2 25883  52.0051  36.5888 0002117  79.8641  91.0650 11.10168902114078
GLOBALSTAR M027         
1 25884U 99043B   25161.52655441 -.00000129  00000+0 -24606-2 0  9992
2 25884  52.0195 113.4429 0021820 341.2699  18.7290 11.04372239140501
GLOBALSTAR M054         
1 25885U 99043C   25161.53431565  .00000072  00000+0  36602-2 0  9997
2 25885  52.0128 241.8464 0006246 164.3231 208.9074 11.39222200118298
GLOBALSTAR M053         
1 25886U 99043D   25161.32400626 -.00000043  00000+0  75204-3 0  9990
2 25886  51.9944 189.0619 0002816  70.1930 302.7558 11.27665759118676
GLOBALSTAR M058         
1 25907U 99049A   25161.43975134 -.00000092  00000+0 -97132-4 0  9993
2 25907  51.9919 127.1912 0001897 261.9942  98.0677 11.93200399540733
GLOBALSTAR M033         
1 25909U 99049C   25161.55156567 -.00000096  00000+0 -45497-4 0  9990
2 25909  51.9936   7.3548 0012836 248.3526 111.5954 12.20293001534937
GLOBALSTAR M055         
1 25910U 99049D   25161.59026247 -.00000070  00000+0  20776-3 0  9990
2 25910  52.0040  18.3155 0007709 114.1567 246.0091 12.29428478167475
